SALSAT                  
1 46495U 20068K   24211.85136871  .00008062  00000+0  44862-3 0  9995
2 46495  97.8177 172.2425 0014460 160.2121 199.9673 15.13845820210767
UVSQ-SAT                
1 47438U 21006AB  24211.88196494  .00072997  00000+0  11229-2 0  9994
2 47438  97.3216 273.1102 0004494  76.7759 283.3995 15.53972069195353
LEDSAT                  
1 49069U 21073D   24212.14742630  .00020949  00000+0  79921-3 0  9993
2 49069  97.4354 283.0338 0019749 131.4412 228.8527 15.26511672163005
XW-3 (CAS-9)            
1 50466U 21131B   24212.21496554  .00001052  00000+0  34971-3 0  9990
2 50466  98.5279 297.0855 0004150  15.1324 344.9987 14.39757400136199
TEVEL-3                 
1 50988U 22002E   24211.85664250  .01304663  10017-2  19687-2 0  9999
2 50988  97.3554 290.7385 0011613 253.6978 106.3025 16.04728723141790
TEVEL-8                 
1 50989U 22002F   24211.72236620  .01153521  72501-3  19039-2 0  9995
2 50989  97.3618 290.6701 0012338 253.6892 106.3031 16.03133213141760
TEVEL-1                 
1 51013U 22002AF  24211.90417656  .01091069  63578-3  18095-2 0  9997
2 51013  97.3622 290.5988 0012400 252.8673 107.1249 16.03026347141790
TEVEL-7                 
1 51062U 22002CG  24212.19168691  .01404188  12362-2  19433-2 0  9996
2 51062  97.3611 291.1941 0012302 257.2570 102.7337 16.06194559141843
TEVEL-4                 
1 51063U 22002CH  24211.78055949  .00969696  46383-3  18759-2 0  9992
2 51063  97.3651 290.5201 0011726 251.3453 108.6553 16.00342171141769
TEVEL-2                 
1 51069U 22002CP  24211.97724624  .01288260  97914-3  18971-2 0  9996
2 51069  97.3551 290.8419 0011958 253.3790 106.6178 16.05117554141818
GREENCUBE               
1 53106U 22080B   24206.16680960 -.00000003  00000+0  00000+0 0  9999
2 53106  70.1349 179.6741 0007614  98.9379 261.2142  6.42557625 47640
KAI-1 (RS26S)           
1 53378U 22096J   24212.17013042  .00346850  46321-4  11825-2 0  9999
2 53378  97.3882 134.1267 0008852 131.3658 228.8377 15.89706272111017
CAS-5A (FO-118)         
1 54684U 22167C   24212.19195264  .00034984  00000+0  10959-2 0  9996
2 54684  97.6086 358.1340 0009032 354.3379   5.7759 15.32971297 90881
STRATOSAT-TK 1 (RS52S)  
1 57167U 23091B   24212.20471564  .00017263  00000+0  95332-3 0  9994
2 57167  97.6091 265.1946 0013355 335.6686  24.3913 15.13915937 60065
UMKA 1 (RS40S)          
1 57172U 23091G   24212.20075682  .00006423  00000+0  41828-3 0  9998
2 57172  97.6096 263.8213 0015601 340.4093  19.6534 15.08184546 59972
CUBESX-HSE 3 (RS42S)    
1 57178U 23091N   24212.18063269  .00008962  00000+0  55690-3 0  9991
2 57178  97.6125 264.3441 0015816 332.5304  27.5088 15.09789626 59990
MONITOR-4 (RS57S)       
1 57182U 23091S   24212.18248605  .00008286  00000+0  52276-3 0  9991
2 57182  97.6113 264.1275 0016241 333.9559  26.0851 15.09253668 59988
MONITOR-2 (RS39S)       
1 57184U 23091U   24212.16270274  .00006680  00000+0  43501-3 0  9995
2 57184  97.6123 264.1808 0013005 328.8481  31.1975 15.08204920 59985
SVYATOBOR 1 (RS60S)     
1 57187U 23091X   24212.20519160  .00007989  00000+0  49548-3 0  9993
2 57187  97.6128 264.7457 0012073 326.0829  33.9627 15.09940076 60020
VIZARD-METEO (RS38S)    
1 57189U 23091Z   24212.18515768  .00009695  00000+0  57518-3 0  9994
2 57189  97.6114 265.1943 0010929 322.2546  37.7917 15.11506565 60055
NANOZOND 1 (RS49S)      
1 57190U 23091AA  24212.17594552  .00015872  00000+0  86504-3 0  9994
2 57190  97.6089 265.8408 0009196 325.9239  34.1401 15.14445130 60102
POLYTECH-UNIVERSE 3 (R*)
1 57191U 23091AB  24212.16877083  .00006542  00000+0  42572-3 0  9998
2 57191  97.6085 263.8497 0018661 345.1641  14.9037 15.08161389 59971
UTMN 2 (RS27S)          
1 57203U 23091AP  24212.19081951  .00008655  00000+0  52188-3 0  9997
2 57203  97.6115 265.0302 0011296 323.0584  36.9866 15.10949370 60047
ARCCUBE 1 (RS25S)       
1 57205U 23091AR  24212.18524793  .00018260  00000+0  95737-3 0  9994
2 57205  97.6057 266.0202 0009163 326.7290  33.3365 15.15789148 60122
KUZGTU 1 (RS47S)        
1 57217U 23091AV  24212.19359259  .00008515  00000+0  53175-3 0  9993
2 57217  97.6104 264.1988 0015693 334.6099  25.4357 15.09625918 59991
HADES-D (SO-121)        
1 58567U 23174CY  24211.63789355  .00065778  00000+0  19200-2 0  9990
2 58567  97.4505 287.6411 0009867  87.1963 273.0409 15.35042248 40289
CUTE-1 (CO-55)          
1 27844U 03031E   24211.48068310  .00000687  00000+0  32225-3 0  9999
2 27844  98.6776 217.9218 0010307  29.0297 331.1452 14.23338302 93808
CUBESAT XI-IV (CO-57)   
1 27848U 03031J   24211.50192790  .00000592  00000+0  28350-3 0  9995
2 27848  98.6806 218.1636 0010477  43.9861 316.2149 14.22769028 93554
CUBESAT XI-V            
1 28895U 05043F   24212.11784201  .00003076  00000+0  54469-3 0  9995
2 28895  98.2066 348.0249 0014929 218.4164 141.5978 14.67985815   982
CUTE-1.7+APD II (CO-65) 
1 32785U 08021C   24211.86105739  .00007523  00000+0  65196-3 0  9991
2 32785  97.7576 176.8535 0011306 170.8382 189.3048 14.97340899881861
AAUSAT-II               
1 32788U 08021F   24211.94040047  .00026857  00000+0  12553-2 0  9992
2 32788  97.5958 192.3740 0006453  55.3396 304.8446 15.19742578884815
CANX-2                  
1 32790U 08021H   24211.83560410  .00005297  00000+0  47951-3 0  9990
2 32790  97.7684 175.5425 0011919 184.2588 175.8533 14.95767620881668
SEEDS II (CO-66)        
1 32791U 08021J   24211.83700305  .00010388  00000+0  73819-3 0  9999
2 32791  97.6925 182.8019 0006966 142.3159 217.8556 15.04861733882935
SWISSCUBE               
1 35932U 09051B   24211.95248777  .00001982  00000+0  42979-3 0  9999
2 35932  98.4658  96.1129 0007094 175.5722 184.5541 14.59268252788792
BEESAT-1                
1 35933U 09051C   24211.62258751  .00001706  00000+0  37390-3 0  9992
2 35933  98.4586  96.6299 0005144 186.4943 173.6190 14.58975118788813
ITUPSAT1                
1 35935U 09051E   24211.66777110  .00001562  00000+0  35114-3 0  9995
2 35935  98.4684  96.4379 0007217 197.7988 162.2958 14.57917897788453
TISAT 1                 
1 36799U 10035E   24211.42024460  .00008942  00000+0  66084-3 0  9994
2 36799  98.0850 102.7058 0007015  91.9359 268.2668 15.03448846763409
AEROCUBE 4.5A           
1 38767U 12048K   24211.27616168  .00020858  00000+0  10665-2 0  9995
2 38767  64.6580 178.7472 0110695   3.8674 356.3275 15.11441519266825
AEROCUBE 4.5B           
1 38768U 12048L   24211.95065211  .00038210  00000+0  12261-2 0  9993
2 38768  64.6543  98.5098 0086662 350.5679   9.3818 15.28483067267956
STRAND-1                
1 39090U 13009E   24212.05593798  .00000693  00000+0  25211-3 0  9992
2 39090  98.3818  39.1628 0009904 120.7450 239.4713 14.36146930598413
BRITE-AUSTRIA           
1 39091U 13009F   24211.48283574  .00000468  00000+0  17610-3 0  9991
2 39091  98.3863  37.8789 0011256 129.4621 230.7562 14.35856477598336
NEE-01 PEGASO           
1 39151U 13018B   24212.03870458  .00003952  00000+0  45591-3 0  9993
2 39151  98.0397 329.5899 0013670 258.7217 101.2462 14.86179108608343
ESTCUBE 1               
1 39161U 13021C   24212.16964669  .00003169  00000+0  45945-3 0  9993
2 39161  97.8262 277.3272 0010367  92.5639 267.6758 14.76697620603476
POPACS 1                
1 39268U 13055D   24211.95784817  .00035034  00000+0  58872-3 0  9998
2 39268  80.9799 102.0349 0391016 315.0650  41.9518 14.96611547566921
POPACS 2                
1 39269U 13055E   24211.89940373  .00014840  00000+0  33919-3 0  9990
2 39269  81.0016 192.9356 0545136 192.3118 166.4313 14.58272253561826
POPACS 3                
1 39270U 13055F   24211.85254612  .00011695  00000+0  31924-3 0  9991
2 39270  81.0064 245.1107 0622232 338.6297  18.9894 14.38302201539096
ZACUBE-1 (TSHEPISOSAT)  
1 39417U 13066B   24211.84475156  .00007218  00000+0  73916-3 0  9996
2 39417  97.7356 166.8746 0050718  21.7946 338.5414 14.89827769577931
WNISAT-1                
1 39423U 13066H   24212.12775140  .00001646  00000+0  32249-3 0  9994
2 39423  97.6701  42.9753 0168479 234.1948 124.3495 14.55399877566899
TRITON-1                
1 39427U 13066M   24212.21415284  .00004686  00000+0  65617-3 0  9990
2 39427  97.8387 128.8228 0100416 304.1966  54.9756 14.74569425572749
DELFI-N3XT              
1 39428U 13066N   24211.83530080  .00008872  00000+0  11127-2 0  9997
2 39428  97.8349 129.0610 0097920 311.1760  48.1035 14.79038781572398
GOMX-1                  
1 39430U 13066Q   24212.16802884  .00003523  00000+0  58346-3 0  9994
2 39430  97.7273  83.9462 0140819 115.8858 245.6941 14.64447157569337
CUBEBUG-2 (LO-74)       
1 39440U 13066AA  24211.80243872  .00005262  00000+0  61385-3 0  9990
2 39440  97.8131 154.5674 0070674 133.7912 226.9178 14.83803808574658
NEE-02 KRYSAOR          
1 39441U 13066AB  24211.82224813  .00003137  00000+0  39804-3 0  9997
2 39441  97.8221 150.2948 0074622 156.0997 204.3710 14.80442004574245
FUNCUBE-1 (AO-73)       
1 39444U 13066AE  24211.85341732  .00009004  00000+0  85485-3 0  9998
2 39444  97.7211 170.1205 0047199   2.1160 358.0250 14.92892668576476
UWE-3                   
1 39446U 13066AG  24211.79846626  .00006632  00000+0  72842-3 0  9992
2 39446  97.7818 160.6423 0061805  79.9917 280.8266 14.86575882575038
BRITE-CA1 (TORONTO)     
1 40020U 14033L   24211.91737169  .00001596  00000+0  26353-3 0  9992
2 40020  97.8828 347.5521 0081909 316.3778  43.0972 14.69602630541258
DUCHIFAT-1              
1 40021U 14033M   24211.76260790  .00015254  00000+0  97665-3 0  9997
2 40021  98.0925 197.8248 0010469 324.6485  35.4047 15.08624292550544
NANOSATC-BR1            
1 40024U 14033Q   24211.92531176  .00011583  00000+0  83336-3 0  9998
2 40024  98.0662 185.8377 0007508  47.3478 312.8379 15.04378264549679
